IRIDIUM 116             
1 43072U 17083C   25178.86068442  .00000218  00000+0  70866-4 0  9997
2 43072  86.3967 110.1497 0002093  79.0279 281.1152 14.34217800393384
IRIDIUM 130             
1 43073U 17083D   25178.82897190  .00000109  00000+0  32021-4 0  9994
2 43073  86.3976 110.4037 0002224  74.3211 285.8230 14.34218002393325
IRIDIUM 151             
1 43074U 17083E   25178.87336953  .00000078  00000+0  20733-4 0  9997
2 43074  86.3970 110.1943 0002031  80.6257 279.5169 14.34218074393352
IRIDIUM 134             
1 43075U 17083F   25179.33003772 -.00000001  00000+0 -73213-5 0  9990
2 43075  86.3971 110.0064 0002153  75.9921 284.1514 14.34217282393386
IRIDIUM 137             
1 43076U 17083G   25179.20318365  .00000054  00000+0  12134-4 0  9994
2 43076  86.3974 110.1451 0001573  86.6821 273.4555 14.34217855393432
IRIDIUM 141             
1 43077U 17083H   25179.19684288  .00000075  00000+0  19746-4 0  9992
2 43077  86.3968 109.9986 0002409  86.9352 273.2119 14.34217824393436
IRIDIUM 153             
1 43078U 17083J   25179.21879036 -.00000007  00000+0 -96375-5 0  9994
2 43078  86.3956  78.4551 0002555  85.6288 274.5200 14.34219134394542
IRIDIUM 131             
1 43079U 17083K   25178.90508367  .00000017  00000+0 -95767-6 0  9991
2 43079  86.3975 110.2828 0002161  88.1939 271.9504 14.34217529393329
